NORAD_CAT_ID,OBJECT_NAME,OBJECT_TYPE,EPOCH,MEAN_MOTION,ECCENTRICITY,INCLINATION,RA_OF_ASC_NODE,ARG_OF_PERICENTER,MEAN_ANOMALY,BSTAR,MEAN_MOTION_DOT,MEAN_MOTION_DDOT,TLE_LINE0,TLE_LINE1,TLE_LINE2,SEMIMAJOR_AXIS,PERIOD,APOGEE,PERIGEE,DECAYED
52467.0,STARLINK-3873,PAYLOAD,2023-09-30 17:39:54,15.08838977,0.0001313,53.2155,98.7663,84.9176,275.1966,2.6639e-05,1.36e-06,0.0,0 STARLINK-3873,1 52467U 22049S   23273.73604511  .00000136  00000-0  26639-4 0  9995,2 52467  53.2155  98.7663 0001313  84.9176 275.1966 15.08838977 77904,6917.884,95.438,540.657,538.84,0.0
52467.0,STARLINK-3873,PAYLOAD,2023-10-01 12:44:31,15.08841926,0.0001248,53.2165,95.1978,93.0736,267.0399,7.0789e-05,8.39e-06,0.0,0 STARLINK-3873,1 52467U 22049S   23274.53092329  .00000839  00000-0  70789-4 0  9997,2 52467  53.2165  95.1978 0001248  93.0736 267.0399 15.08841926 77868,6917.875,95.437,540.603,538.876,0.0
52467.0,STARLINK-3873,PAYLOAD,2023-10-01 19:06:03,15.08850317,0.0001181,53.2159,94.0098,94.3734,265.7393,7.3642e-05,8.85e-06,0.0,0 STARLINK-3873,1 52467U 22049S   23274.79587751  .00000885  00000-0  73642-4 0  9995,2 52467  53.2159  94.0098 0001181  94.3734 265.7393 15.08850317 78066,6917.849,95.437,540.531,538.897,0.0
52467.0,STARLINK-3873,PAYLOAD,2023-10-02 12:35:19,15.08831589,0.0001271,53.2173,90.741,97.2302,262.8835,4.6217e-05,4.48e-06,0.0,0 STARLINK-3873,1 52467U 22049S   23275.52453111  .00000448  00000-0  46217-4 0  9992,2 52467  53.2173  90.7410 0001271  97.2302 262.8835 15.08831589 78177,6917.906,95.438,540.65,538.892,0.0
52467.0,STARLINK-3873,PAYLOAD,2023-10-02 18:56:51,15.08836138,0.0001418,53.2178,89.5508,99.4196,260.6957,7.0132e-05,8.28e-06,0.0,0 STARLINK-3873,1 52467U 22049S   23275.78948849  .00000828  00000-0  70132-4 0  9992,2 52467  53.2178  89.5508 0001418  99.4196 260.6957 15.08836138 78057,6917.892,95.438,540.738,538.776,0.0
52467.0,STARLINK-3873,PAYLOAD,2023-10-03 04:29:10,15.08839558,0.0001361,53.2177,87.7664,94.9436,265.1712,9.5793e-05,1.237e-05,0.0,0 STARLINK-3873,1 52467U 22049S   23276.18692718  .00001237  00000-0  95793-4 0  9993,2 52467  53.2177  87.7664 0001361  94.9436 265.1712 15.08839558 78275,6917.882,95.438,540.688,538.805,0.0
52467.0,STARLINK-3873,PAYLOAD,2023-10-03 10:50:42,15.08840353,0.0001447,53.2177,86.5767,94.5288,265.587,7.6384e-06,-1.66e-06,0.0,0 STARLINK-3873,1 52467U 22049S   23276.45188517 -.00000166  00000-0  76384-5 0  9997,2 52467  53.2177  86.5767 0001447  94.5288 265.5870 15.08840353 78153,6917.879,95.438,540.745,538.743,0.0
52467.0,STARLINK-3873,PAYLOAD,2023-10-03 18:47:38,15.08841154,0.0001393,53.2171,85.0889,87.9354,272.1798,2.9864e-05,1.87e-06,0.0,0 STARLINK-3873,1 52467U 22049S   23276.78308534  .00000187  00000-0  29864-4 0  9998,2 52467  53.2171  85.0889 0001393  87.9354 272.1798 15.08841154 78205,6917.877,95.437,540.706,538.778,0.0
52467.0,STARLINK-3873,PAYLOAD,2023-10-04 10:41:30,15.08836519,0.0001454,53.2175,82.1153,91.1685,268.9473,0.00032114,4.826e-05,0.0,0 STARLINK-3873,1 52467U 22049S   23277.44548907  .00004826  00000-0  32114-3 0  9997,2 52467  53.2175  82.1153 0001454  91.1685 268.9473 15.08836519 78463,6917.891,95.438,540.762,538.75,0.0
52467.0,STARLINK-3873,PAYLOAD,2023-10-04 12:16:52,15.08848698,0.0001604,53.2175,81.818,87.6875,272.43,-1.5771e-05,-5.39e-06,0.0,0 STARLINK-3873,1 52467U 22049S   23277.51172233 -.00000539  00000-0 -15771-4 0  9990,2 52467  53.2175  81.8180 0001604  87.6875 272.4300 15.08848698 78311,6917.854,95.437,540.828,538.609,0.0
52467.0,STARLINK-3873,PAYLOAD,2023-10-04 18:38:25,15.08849304,0.0001457,53.2175,80.6286,87.8372,272.2787,0.00029603,4.428e-05,0.0,0 STARLINK-3873,1 52467U 22049S   23277.77668223  .00004428  00000-0  29603-3 0  9994,2 52467  53.2175  80.6286 0001457  87.8372 272.2787 15.08849304 78519,6917.852,95.437,540.725,538.709,0.0
52467.0,STARLINK-3873,PAYLOAD,2023-10-05 10:32:17,15.08840196,0.00016,53.2163,77.6545,81.7685,278.3489,8.2629e-05,1.027e-05,0.0,0 STARLINK-3873,1 52467U 22049S   23278.43908660  .00001027  00000-0  82629-4 0  9990,2 52467  53.2163  77.6545 0001600  81.7685 278.3489 15.08840196 78617,6917.88,95.438,540.852,538.638,0.0
52467.0,STARLINK-3873,PAYLOAD,2023-10-05 16:53:49,15.08842902,0.0001521,53.2163,76.4643,86.0973,274.0193,7.8441e-05,9.61e-06,0.0,0 STARLINK-3873,1 52467U 22049S   23278.70404486  .00000961  00000-0  78441-4 0  9990,2 52467  53.2163  76.4643 0001521  86.0973 274.0193 15.08842902 78491,6917.872,95.437,540.789,538.684,0.0
52467.0,STARLINK-3873,PAYLOAD,2023-10-06 10:23:04,15.08839904,0.0001666,53.2175,73.194,89.931,270.1873,-4.046e-05,-9.32e-06,0.0,0 STARLINK-3873,1 52467U 22049S   23279.43268760 -.00000932  00000-0 -40460-4 0  9994,2 52467  53.2175  73.1940 0001666  89.9310 270.1873 15.08839904 78608,6917.881,95.438,540.898,538.593,0.0
52467.0,STARLINK-3873,PAYLOAD,2023-10-06 16:44:36,15.08840348,0.0001451,53.2163,72.0038,92.5816,267.5342,-7.9017e-06,-4.14e-06,0.0,0 STARLINK-3873,1 52467U 22049S   23279.69764704 -.00000414  00000-0 -79017-5 0  9997,2 52467  53.2163  72.0038 0001451  92.5816 267.5342 15.08840348 78801,6917.879,95.438,540.748,538.741,0.0
52467.0,STARLINK-3873,PAYLOAD,2023-10-07 13:24:37,15.08841297,0.0001628,53.2158,68.1388,88.7481,271.3698,0.00016204,2.292e-05,0.0,0 STARLINK-3873,1 52467U 22049S   23280.55876892  .00002292  00000-0  16204-3 0  9997,2 52467  53.2158  68.1388 0001628  88.7481 271.3698 15.08841297 78777,6917.876,95.437,540.868,538.615,0.0
52467.0,STARLINK-3873,PAYLOAD,2023-10-07 16:35:23,15.0884659,0.0001537,53.2165,67.5427,90.914,269.2028,0.00017441,2.489e-05,0.0,0 STARLINK-3873,1 52467U 22049S   23280.69124601  .00002489  00000-0  17441-3 0  9998,2 52467  53.2165  67.5427 0001537  90.9140 269.2028 15.08846590 78794,6917.86,95.437,540.789,538.662,0.0
52467.0,STARLINK-3873,PAYLOAD,2023-10-08 10:04:38,15.08836274,0.0001598,53.2172,64.2736,94.8085,265.309,0.00012303,1.67e-05,0.0,0 STARLINK-3873,1 52467U 22049S   23281.41989234  .00001670  00000-0  12303-3 0  9993,2 52467  53.2172  64.2736 0001598  94.8085 265.3090 15.08836274 79062,6917.892,95.438,540.862,538.651,0.0
52467.0,STARLINK-3873,PAYLOAD,2023-10-08 13:15:24,15.08838342,0.0001616,53.2169,63.6789,93.701,266.4167,0.00010968,1.458e-05,0.0,0 STARLINK-3873,1 52467U 22049S   23281.55237142  .00001458  00000-0  10968-3 0  9991,2 52467  53.2169  63.6789 0001616  93.7010 266.4167 15.08838342 78925,6917.885,95.438,540.868,538.633,0.0
52467.0,STARLINK-3873,PAYLOAD,2023-10-08 19:36:56,15.08847726,0.0001397,53.2167,62.489,86.2826,273.8325,0.00020229,2.934e-05,0.0,0 STARLINK-3873,1 52467U 22049S   23281.81732624  .00002934  00000-0  20229-3 0  9996,2 52467  53.2167  62.4890 0001397  86.2826 273.8325 15.08847726 78969,6917.857,95.437,540.688,538.755,0.0
52467.0,STARLINK-3873,PAYLOAD,2023-10-09 13:06:11,15.08841873,0.0001378,53.2171,59.2182,83.2068,276.9081,4.0129e-05,3.51e-06,0.0,0 STARLINK-3873,1 52467U 22049S   23282.54596933  .00000351  00000-0  40129-4 0  9991,2 52467  53.2171  59.2182 0001378  83.2068 276.9081 15.08841873 79079,6917.875,95.437,540.693,538.786,0.0
52467.0,STARLINK-3873,PAYLOAD,2023-10-09 16:16:57,15.0884637,0.000122,53.2169,58.624,88.3299,271.7832,9.6367e-05,1.246e-05,0.0,0 STARLINK-3873,1 52467U 22049S   23282.67844624  .00001246  00000-0  96367-4 0  9997,2 52467  53.2169  58.6240 0001220  88.3299 271.7832 15.08846370 79256,6917.861,95.437,540.57,538.882,0.0
52467.0,STARLINK-3873,PAYLOAD,2023-10-10 12:56:58,15.08844672,0.0001329,53.2186,54.7606,96.614,263.5003,6.4393e-05,7.37e-06,0.0,0 STARLINK-3873,1 52467U 22049S   23283.53956691  .00000737  00000-0  64393-4 0  9999,2 52467  53.2186  54.7606 0001329  96.6140 263.5003 15.08844672 79224,6917.866,95.437,540.65,538.812,0.0
52467.0,STARLINK-3873,PAYLOAD,2023-10-10 16:07:44,15.08849228,0.0001135,53.2173,54.1649,93.9273,266.1849,0.00015413,2.167e-05,0.0,0 STARLINK-3873,1 52467U 22049S   23283.67204341  .00002167  00000-0  15413-3 0  9999,2 52467  53.2173  54.1649 0001135  93.9273 266.1849 15.08849228 79244,6917.852,95.437,540.502,538.932,0.0
52467.0,STARLINK-3873,PAYLOAD,2023-10-11 12:47:46,15.08833033,0.0001471,53.219,50.2994,93.0821,267.0339,-4.828e-05,-1.056e-05,0.0,0 STARLINK-3873,1 52467U 22049S   23284.53317372 -.00001056  00000-0 -48280-4 0  9991,2 52467  53.2190  50.2994 0001471  93.0821 267.0339 15.08833033 79539,6917.902,95.438,540.784,538.749,0.0
52467.0,STARLINK-3873,PAYLOAD,2023-10-12 14:13:56,15.08844086,0.0001067,53.2184,45.5414,82.345,277.7664,0.00013987,1.939e-05,0.0,0 STARLINK-3873,1 52467U 22049S   23285.59301146  .00001939  00000-0  13987-3 0  9993,2 52467  53.2184  45.5414 0001067  82.3450 277.7664 15.08844086 79535,6917.868,95.437,540.471,538.995,0.0
52467.0,STARLINK-3873,PAYLOAD,2023-10-12 15:49:18,15.08853053,0.0001319,53.2183,45.242,92.4944,267.62,0.00020036,2.903e-05,0.0,0 STARLINK-3873,1 52467U 22049S   23285.65924557  .00002903  00000-0  20036-3 0  9992,2 52467  53.2183  45.2420 0001319  92.4944 267.6200 15.08853053 79705,6917.84,95.437,540.618,538.793,0.0
52467.0,STARLINK-3873,PAYLOAD,2023-10-13 01:21:38,15.08843861,0.0001445,53.2188,43.4577,93.9774,266.1383,4.788e-05,4.74e-06,0.0,0 STARLINK-3873,1 52467U 22049S   23286.05669045  .00000474  00000-0  47880-4 0  9993,2 52467  53.2188  43.4577 0001445  93.9774 266.1383 15.08843861 79768,6917.869,95.437,540.733,538.734,0.0
52467.0,STARLINK-3873,PAYLOAD,2023-10-13 12:29:20,15.08836958,0.0001323,53.2176,41.3778,98.8681,261.2461,0.0001551,2.181e-05,0.0,0 STARLINK-3873,1 52467U 22049S   23286.52037773  .00002181  00000-0  15510-3 0  9993,2 52467  53.2176  41.3778 0001323  98.8681 261.2461 15.08836958 79831,6917.89,95.438,540.67,538.839,0.0
52467.0,STARLINK-3873,PAYLOAD,2023-10-13 14:04:43,15.08838056,0.0001378,53.2176,41.0803,93.6477,266.4673,0.00015967,2.254e-05,0.0,0 STARLINK-3873,1 52467U 22049S   23286.58661807  .00002254  00000-0  15967-3 0  9997,2 52467  53.2176  41.0803 0001378  93.6477 266.4673 15.08838056 79689,6917.886,95.438,540.705,538.798,0.0
